IRIDIUM 7               
1 24793U 97020B   25054.16801698  .00000896  00000+0  30329-3 0  9990
2 24793  86.3948 224.6378 0002273  96.4009 263.7446 14.35776208455750
IRIDIUM 5               
1 24795U 97020D   25054.15245337  .00010152  00000+0  86770-3 0  9990
2 24795  86.3928 136.2664 0112395 186.2626 173.7206 14.92669852468472
IRIDIUM 4               
1 24796U 97020E   25054.01435662  .00000848  00000+0  28131-3 0  9996
2 24796  86.3951 221.6547 0002035  96.0127 264.1302 14.36685769456103
IRIDIUM 914             
1 24836U 97030A   25054.47412729  .00001168  00000+0  35991-3 0  9999
2 24836  86.3911 230.4074 0001209 145.0432 215.0846 14.40674586452859
IRIDIUM 16              
1 24841U 97030F   25053.84648470  .00000801  00000+0  25586-3 0  9991
2 24841  86.3979 253.3049 0004280  85.5126 274.6561 14.38527511450568
IRIDIUM 911             
1 24842U 97030G   25054.47200030  .00001270  00000+0  34072-3 0  9999
2 24842  86.4406 251.9290 0016082 113.6779 246.6114 14.47385743458613
IRIDIUM 17              
1 24870U 97034B   25054.11108005  .00000754  00000+0  24462-3 0  9992
2 24870  86.3920 282.7537 0003243  61.0954 299.0569 14.37645497447197
IRIDIUM 920             
1 24871U 97034C   25054.09983567  .00000782  00000+0  23519-3 0  9997
2 24871  86.3919 262.2262 0013590  97.0910 263.1836 14.41346677450401
